id,assoc,lat,lon,address,city,state,zip,website,founded,emp,vol,empVol,rev,fedFunds,childrenServed,totalEA,totalHousing,totalDV,oppZone,program1,program2,program3,program4,program5,congDist
AK01,YWCA Alaska,61.2172824,-149.8780167,324 E 5th Ave,Anchorage,AK,99501,'http://www.ywcaak.org/','1989',9,42,51,924466,,698,992,,,true,Health and Wellness,Economic Advancement,Racial Justice and Civil Rights,Children's and Family Development,,AL
AL01,YWCA Central Alabama,33.5186746,-86.8026353,309 North 23rd Street,Birmingham,AL,35203,'http://www.ywcabham.org/','1903',121,1016,1137,7899209,1637829,3962,55,385,9990,true,Domestic Violence and Safety,Children's and Family Development,Adult and Community ,Racial Justice and Civil Rights,Women's and Girls' Empowerment,6
AZ01,YWCA Metropolitan Phoenix,33.4824364,-111.9863375,"2999 N. 44th Street, Suite 250",Phoenix,AZ,85018,'http://www.ywcaaz.org/','1912',32,113,145,1132616,335000,15,115,,,false,Adult and Community ,Women's and Girls' Empowerment,Women's and Girls' Leadership Development,Economic Advancement,Racial Justice and Civil Rights,9
AZ02,YWCA Southern Arizona,32.2276434,-110.9871187,525 N. Bonita Avenue,Tucson,AZ,85745,'http://www.ywcatucson.org/','1917',25,59,84,1747350,263500,1000,202,,118,true,Economic Advancement,Health and Wellness,Domestic Violence and Safety,Women's and Girls' Empowerment,Children's and Family Development,3
CA01,YWCA Berkeley/Oakland,37.8687772,-122.2565884,2600 Bancroft Way,Berkeley,CA,94704,'http://www.ywca-berkeley.org/','1889',15,1210,1225,513682,,5523,761,,,false,Women's and Girls' Leadership Development,Children's and Family Development,Racial Justice and Civil Rights,Health and Wellness,Economic Advancement,13
CA02,YWCA Contra Costa County/Sacramento,37.99274,-122.0993063,1320 Arnold Drive Suite 170,Martinez,CA,94553,'http://www.ywcaccc.org/','1891',50,18,68,2919015,1120001,493,,32,,false,Children's and Family Development,Housing,,,,5|11
CA03,YWCA Glendale,34.1520393,-118.2457145,735 East Lexington Ave.,Glendale,CA,91206,'http://www.glendaleywca.org/','1926',31,61,92,2100926,1300000,402,,,525,false,Domestic Violence and Safety,Immigrant and Refugee,Fitness and Athletics,Economic Advancement,Children's and Family Development,28
CA04,YWCA Greater Los Angeles,34.0414287,-118.2598984,"1020 South Olive Street, 7th Fl",Los Angeles,CA,90015,'http://www.ywcagla.org/','1894',159,50,209,29378354,2090000,1028,3562,750,25229,false,Women's and Girls' Empowerment,Sexual Assault and Trafficking,Racial Justice and Civil Rights,Adult and Community ,Health and Wellness,37|40
CA05,YWCA Monterey County,36.6745874,-121.6542251,236 Monterey Street,Salinis,CA,93901,'http://www.ywca.org/montereycounty','1970',20,17,37,1605576,1409648,1285,,,1174,true,Domestic Violence and Safety,,,,,20
CA06,YWCA North Orange County,34.093699,-118.122225,"215 E. Commonwealth Avenue, #F",Fullerton,CA,92822,'http://www.ywcanoc.org/','1946',8,155,163,359229,15000,545,142,200,1500,false,Health and Wellness,Economic Advancement,Women's and Girls' Empowerment,Women's and Girls' Leadership Development,,39|46
CA07,YWCA Pasadena-Foothill Valley,34.1469718,-118.1210309,"50 N. Hill Ave, Suite 301",Pasadena,CA,91106,'http://www.ywca.org/site/pp.aspx?c=biIMI2NNKgKYF&b=8083783','1905',5,63,68,289150,80000,643,457,,,false,Economic Advancement,Women's and Girls' Leadership Development,Women's and Girls' Empowerment,Children's and Family Development,Adult and Community ,27
CA08,YWCA San Diego County,32.7170836,-117.155328,1012 C Street,San Diego,CA,92101,'http://www.ywcasandiego.org/','1908',56,483,539,4195247,2170866,5290,,675,7997,false,Domestic Violence and Safety,Housing,,,,49|50|51|52
CA09,YWCA San Francisco & Marin,37.7934919,-122.4092654,940 Powell Street,San Francisco,CA,94108,'http://www.ywcasf-marin.org/','1878',21,89,110,2417720,2100000,100,451,114,,false,Women's and Girls' Leadership Development,Economic Advancement,Women's and Girls' Empowerment,Adult and Community ,Housing,2|12
CA10,YWCA San Gabriel Valley,34.0969477,-117.8728558,943 North Grand Avenue,Covina,CA,91724,'http://www.ywcasgv.org/','1935',133,10,143,10115124,,840,55,40,1738,false,Domestic Violence and Safety,Adult and Community ,Children's and Family Development,Housing,Economic Advancement,32
CA11,YWCA Silicon Valley,37.3314888,-121.8845554,375 South Third Street,San Jose,CA,95112,'http://www.ywca-sv.org/','1914',77,442,519,8251311,2638399,1495,200,77,1458,true,Domestic Violence and Safety,Children's and Family Development,Economic Advancement,Women's and Girls' Leadership Development,,17|19
CA12,YWCA Sonoma County,38.441467,-122.709698,"P.O. Box 3506, 811 Third Street",Santa Rosa,CA,95402,'http://www.ywcasc.org/','1975',39,43,82,2500733,,666,,,2517,true,Domestic Violence and Safety,Children's and Family Development,Women's and Girls' Empowerment,,,5
CA13,YWCA Watsonville,36.9143897,-121.7504172,340 E. Beach Street,Watsonville,CA,95076,'http://www.ywca.org/watsonville','1929',19,5,24,702764,,840,160,,,false,Children's and Family Development,Economic Advancement,Women's and Girls' Empowerment,Women's and Girls' Leadership Development,Health and Wellness,20
CO01,YWCA Boulder County,40.0213277,-105.2781277,2222 14th Street,Boulder,CO,80302,'http://www.ywcaboulder.org/','1922',31,6522,6553,1204915,,4278,241,,,false,Racial Justice and Civil Rights,Children's and Family Development,Economic Advancement,,,2
CO02,YWCA Pueblo,38.2747743,-104.6075548,801 N Sante Fe Avenue,Pueblo,CO,81003,'http://www.ywcapueblo.com/','1914',26,40,66,937298,,744,,,1214,true,Domestic Violence and Safety,Women's and Girls' Empowerment,Fitness and Athletics,Children's and Family Development,Adult and Community ,3
CT01,YWCA Darien Norwalk,41.0803298,-73.4644196,49 Old Kings Highway N.,Darien,CT,06820,'http://www.ywcadn.org/','1976',6,240,246,266169,,110,,,,false,Children's and Family Development,Adult and Community ,,,,4
CT02,YWCA Greenwich,41.0375965,-73.618421,259 East Putnam Avenue,Greenwich,CT,06830,'http://www.ywcagreenwich.org/','1919',120,29,149,6519583,,276,155,47,743,false,Domestic Violence and Safety,Children's and Family Development,Fitness and Athletics,Adult and Community ,Racial Justice and Civil Rights,4
CT03,YWCA Hartford Region,41.7677094,-72.6866786,135 Broad Street,Hartford,CT,06105,'http://www.ywcahartford.org/','1867',121,372,493,6119904,786749,305,,,,true,Children's and Family Development,Women's and Girls' Empowerment,Economic Advancement,Women's and Girls' Leadership Development,Housing,1
CT04,YWCA New Britain,41.6639618,-72.7809217,22 Glen Street,New Britain,CT,06051,'http://www.ywcanewbritain.org/','1910',163,99,262,5525063,1127000,1401,225,,,true,Fitness and Athletics,Sexual Assault and Trafficking,Children's and Family Development,Economic Advancement,Women's and Girls' Leadership Development,5
DC01,YWCA National Capital Area,38.9206603,-77.0314674,"2303 14th Street NW, Suite 100",Washington,DC,20009,'https://www.ywcanca.org/','1905',53,58,111,1856569,300000,126,529,,,false,Economic Advancement,,,,,AL
DE01,YWCA Delaware,39.745739,-75.5488407,"100 W. 10th Street, Ste 515",Wilmington,DE,19801,'http://www.ywcade.org/','1895',50,251,301,3263622,1157001,1758,2066,251,267,true,Economic Advancement,Racial Justice and Civil Rights,Sexual Assault and Trafficking,Housing,Domestic Violence and Safety,AL
FL01,YWCA Miami,25.7791239,-80.2007793,351 NW 5th Street,Miami,FL,33128,'http://www.ywca-miami.org/','1919',250,250,500,5153655,,6852,54,,,true,Children's and Family Development,Health and Wellness,Economic Advancement,Racial Justice and Civil Rights,,24|27
FL02,YWCA Palm Beach County,26.7222704,-80.052984,1016 North Dixie Highway,West Palm Beach,FL,33401,'http://www.ywcapbc.org/','1917',48,68,116,2758694,381323,813,389,583,1156,false,Domestic Violence and Safety,Racial Justice and Civil Rights,Children's and Family Development,Women's and Girls' Leadership Development,,20|22
GA01,YWCA Greater Atlanta,33.7806571,-84.3533222,957 North Highland Avenue,Atlanta,GA,30306,'http://www.ywcaatlanta.org/','1902',40,45,85,2083425,44366,1017,134,,,false,Health and Wellness,Children's and Family Development,Racial Justice and Civil Rights,Women's and Girls' Empowerment,Economic Advancement,5
HI01,YWCA Hawaii Island,19.7235034,-155.0888891,145 Ululani Street,Hilo,HI,96720,'http://www.ywcahawaiiisland.org/','1919',54,30,84,2707506,541264,,,,,true,Children's and Family Development,Sexual Assault and Trafficking,,,,2
HI02,YWCA Kauai County,21.9767467,-159.3664259,3094 Elua Street,Lihue,HI,96766,'http://www.ywcakauai.org/','1921',45,57,102,2229230,532452,,,,4871,false,Racial Justice and Civil Rights,Domestic Violence and Safety,Children's and Family Development,Sexual Assault and Trafficking,Economic Advancement,2
HI03,YWCA O'ahu,21.3078684,-157.8600897,1040 Richards Street,Honolulu,HI,96813,'http://www.ywcaoahu.org/','1900',131,139,270,4870094,,1734,2100,,,false,Fitness and Athletics,Women's and Girls' Leadership Development,Economic Advancement,Housing,,1|2
IA01,YWCA Ames-Iowa State University,42.0256035,-93.6505629,210 Lab of Mechanics,Ames,IA,50011,'http://www.ywcaames.org/','1890',6,73,79,62121,,172,112,,,false,Racial Justice and Civil Rights,Women's and Girls' Leadership Development,Children's and Family Development,Economic Advancement,Women's and Girls' Empowerment,4
IA02,YWCA Black Hawk County,42.5001089,-92.3362199,425 Lafayette Street,Waterloo,IA,50703,'http://www.ywcabhc.org/','1911',194,108,302,1171132,,2415,496,,,true,Fitness and Athletics,Children's and Family Development,Health and Wellness,Adult and Community ,Economic Advancement,1
IA03,YWCA Clinton,41.838609,-90.1913344,"317 Seventh Avenue, S",Clinton,IA,52732,'http://www.ywcaclinton.org/','1915',175,73,248,2501013,481762,129,11,220,,true,Fitness and Athletics,Racial Justice and Civil Rights,Housing,Children's and Family Development,Women's and Girls' Empowerment,2
IA04,YWCA Fort Dodge,42.5065061,-94.1867301,826 First Avenue North,Fort Dodge,IA,50501,'http://www.ywca.org/site/pp.asp?c=ljJZJ6MLIuE&b=2619033','1909',23,12,35,1164056,,,,,,true,Health and Wellness,Women's and Girls' Empowerment,,,,4
IA05,YWCA Marshalltown,42.0396485,-92.9151347,108 Washington Street,Marshalltown,IA,50158,'http://www.ymca-ywca.org/','1909',76,103,179,856524,,1140,90,41,1024,false,Fitness and Athletics,Adult and Community ,Immigrant and Refugee,Children's and Family Development,,1
ID01,YWCA Lewiston Clarkston,46.4214159,-117.0294893,300 Main Street,Lewiston,ID,83501,'http://www.ywcaidaho.org/','1919',21,444,465,1434647,941528,36,1555,,,true,Domestic Violence and Safety,Women's and Girls' Empowerment,Children's and Family Development,Sexual Assault and Trafficking,Housing,1
IL01,YWCA Alton,38.890994,-90.1815535,304 E. Third Street,Alton,IL,62002,'http://www.altonywca.com/','1918',28,30,58,388730,,,,,,false,Children's and Family Development,Health and Wellness,Fitness and Athletics,,,12
IL02,YWCA Canton (IL),40.5572853,-90.0364944,111 North Ave A,Canton,IL,61520,'https://www.facebook.com/YWCA-CantonIL-1520364231511318/','1920',52,100,152,2717943,2656000,262,,,,false,Women's and Girls' Empowerment,Children's and Family Development,Racial Justice and Civil Rights,Fitness and Athletics,Women's and Girls' Leadership Development,7
IL03,YWCA Elgin,42.037473,-88.2813883,220 E. Chicago Street,Elgin,IL,60120,'http://www.ywcaelgin.org/','1901',46,301,347,1355351,445000,279,710,,,false,Women's and Girls' Empowerment,Economic Advancement,Racial Justice and Civil Rights,Immigrant and Refugee,Children's and Family Development,8
IL04,YWCA Evanston/North Shore,42.0491323,-87.6891125,1215 Church Street,Evanston,IL,60201,'https://www.kintera.org/site/c.ewK0LoO8LmK6F/b.7964321/k.BD08/Home.htm','1931',85,447,532,4300000,117717,8310,192,,9728,false,Racial Justice and Civil Rights,Domestic Violence and Safety,Fitness and Athletics,Economic Advancement,,9
IL05,YWCA Kankakee,41.1186975,-87.851263,1086 E. Court Street,Kankakee,IL,60901,'http://www.myunitedway.org/ywca','1907',21,327,348,595658,500000,1858,153,130,1389,true,Children's and Family Development,Health and Wellness,,,,2
IL06,YWCA Lake County,42.3783131,-87.9524351,"1425 Tri-State Parkway, Suite 180",Gurnee,IL,60031,'http://www.ywcalakecounty.org/','1922',47,125,172,3129599,,6057,109,200,,false,Health and Wellness,Economic Advancement,Women's and Girls' Leadership Development,Children's and Family Development,,10|14
IL07,YWCA McLean County,40.4906161,-88.9424252,1201 Hershey Road,Bloomington,IL,61704,'http://www.ywcamclean.org/','1908',180,424,604,3750206,,3552,448,200,6395,false,Sexual Assault and Trafficking,Adult and Community ,Racial Justice and Civil Rights,Children's and Family Development,Economic Advancement,18
IL08,YWCA Metropolitan Chicago,41.8823113,-87.6320215,"One N. LaSalle, Suite 1150",Chicago,IL,60602,'http://www.ywcachicago.org/','1876',148,100,248,22014239,6388063,48000,276,,55000,false,Children's and Family Development,Sexual Assault and Trafficking,Economic Advancement,Racial Justice and Civil Rights,Health and Wellness,1|2|4|7|8
IL09,YWCA Northwestern Illinois,42.2671366,-89.0206108,4990 E. State Street,Rockford,IL,61108,'http://www.ywcanwil.org/','1891',45,36,81,1935510,,405,473,42,,false,Economic Advancement,Racial Justice and Civil Rights,Children's and Family Development,Immigrant and Refugee,Domestic Violence and Safety,16|17
IL10,YWCA Pekin,40.566815,-89.6469878,315 Buena Vista,Pekin,IL,61554,'http://www.kintera.org/site/c.duIRJcNZKlL4G/b.8192635/k.BE45/Home.htm','1927',95,86,181,1442529,,708,,,,false,Fitness and Athletics,Racial Justice and Civil Rights,Children's and Family Development,Women's and Girls' Leadership Development,,17
IL11,YWCA Quad Cities,41.5099864,-90.5771786,229 16th Street,Rock Island,IL,61201,'http://www.qcywca.org/','1917',33,43,76,1400000,833000,262,278,,,false,Children's and Family Development,Economic Advancement,Fitness and Athletics,Adult and Community ,Racial Justice and Civil Rights,17
IL12,YWCA Quincy,39.9296583,-91.4051424,"639 York Street, Suite 202",Quincy,IL,62301,'http://www.ywcaquincy.org/','1905',6,16,22,695086,,96,,117,,false,Adult and Community ,Housing,,,,18
IL13,YWCA Sauk Valley,41.7900922,-89.6949739,412 First Avenue,Sterling,IL,61081,'http://www.ywca.org/saukvalley','1924',38,42,80,1201748,788000,469,187,,32604,false,Children's and Family Development,Domestic Violence and Safety,Immigrant and Refugee,Women's and Girls' Empowerment,Economic Advancement,17
IL14,YWCA University of Illinois,40.1065783,-88.2292274,1001 South Wright Street,Champaign,IL,61820,'http://www.ywcauofi.org/','1884',2.5,20,22.5,143717,,28,225,,,true,Racial Justice and Civil Rights,Women's and Girls' Empowerment,Economic Advancement,Women's and Girls' Leadership Development,,13
IN01,YWCA Evansville,37.9721857,-87.5751142,118 Vine St,Evansville,IN,47708,'http://www.ywcaevansville.org/','1911',38,250,288,1601272,210879,402,,179,370,true,Domestic Violence and Safety,Housing,Children's and Family Development,,,8
IN02,YWCA Greater Lafayette,40.423037,-86.8901546,605 North Sixth Street,Lafayette,IN,47901,'http://www.ywcalafayette.org/','1927',81,1117,1198,2573143,453000,6155,220,474,9733,true,Domestic Violence and Safety,Women's and Girls' Empowerment,Racial Justice and Civil Rights,Health and Wellness,Fitness and Athletics,4
IN03,YWCA Muncie,40.1913275,-85.3839318,310 E. Charles Street,Muncie,IN,47305,'http://www.muncieywca.org/','1911',13,13,26,459372,,134,228,,,true,Economic Advancement,Adult and Community ,,,,6
IN04,YWCA North Central Indiana,41.6634427,-86.243229,1102 S. Fellows Street,South Bend,IN,46601,'http://www.ywcancin.org/','1903',65,191,256,3634026,1330000,678,103,131,1094,true,Domestic Violence and Safety,Health and Wellness,Economic Advancement,Sexual Assault and Trafficking,Housing,2
IN05,YWCA Northeast Indiana,41.0887755,-85.134102,1610 Spy Run Avenue,Fort Wayne,IN,46805,'http://www.ywca.org/nein','1894',51,103,154,3110789,200000,1530,42,325,4230,true,Children's and Family Development,Domestic Violence and Safety,Housing,Racial Justice and Civil Rights,Immigrant and Refugee,3
IN06,YWCA Northwest Indiana,41.5884929,-87.3389366,150 W 15th Avenue,Gary,IN,46407,'http://www.ywcanwi.org/','1920',21,17,38,478262,,462,,,,false,Women's and Girls' Empowerment,Economic Advancement,Fitness and Athletics,Children's and Family Development,Health and Wellness,1
KS01,YWCA Northeast Kansas,39.0432077,-95.6790957,225 SW 12th Street,Topeka,KS,66612,'http://www.ywcaneks.org/','1887',96,310,406,1976287,350000,4645,51,,,true,Domestic Violence and Safety,Fitness and Athletics,Sexual Assault and Trafficking,Health and Wellness,Children's and Family Development,2
LA01,YWCA Alexandria-Pineville,31.2683498,-92.4925436,5912 James Street,Alexandria,LA,71303,'http://www.ywcaalex.org/','1946',49,325,374,798165,,1500,,,,false,Fitness and Athletics,Children's and Family Development,Women's and Girls' Leadership Development,,,5
LA02,YWCA Greater Baton Rouge,30.4430075,-91.100661,"8281 Goodwood Boulevard, Suite B1",Baton Rouge,LA,70806,'http://www.ywca-br.org/','1967',67,173,240,2689193,,316,,,,false,,,,,,2|6
LA03,YWCA Greater New Orleans,29.9518573,-90.067925,P.O. Box 50255 (no office),New Orleans,LA,70150,'http://www.ywca.org/neworleans','1911',1,8,9,63379,,1242,,32,,true,,,,,,2
LA04,YWCA Northwest Louisiana,32.493039,-93.74795,850-B Olive Street,Shreveport,LA,71104,'http://www.ywcanwla.org/','1925',9,23,32,232202,146000,14072,,2549,17489,false,Sexual Assault and Trafficking,Health and Wellness,Children's and Family Development,Women's and Girls' Leadership Development,Domestic Violence and Safety,4
MA01,YWCA Boston,42.3486204,-71.0745635,"140 Claredon Street, Suite 403",Boston,MA,02116,'http://www.ywboston.org/','1866',23,23,46,1381914,,2414,,,,false,Children's and Family Development,Racial Justice and Civil Rights,Health and Wellness,Adult and Community ,,7
MA02,YWCA Cambridge,42.3666849,-71.1043422,7 Temple Street,Cambridge,MA,02139,'http://www.ywcacam.org/','1889',43,43,86,1497805,8000,592,,149,,false,Racial Justice and Civil Rights,Housing,Women's and Girls' Leadership Development,,,5|7
MA03,YWCA Central Massachusetts,42.2600388,-71.7988947,1 Salem Square,Worcester,MA,01608,'http://www.ywcacentralmass.org/','1885',204,279,483,6308473,,4056,150,66,4399,true,Domestic Violence and Safety,Fitness and Athletics,Women's and Girls' Empowerment,Children's and Family Development,Racial Justice and Civil Rights,2
MA04,YWCA Greater Newburyport,42.8112028,-70.8747271,13 Market Street,Newburyport,MA,01950,'http://www.ywcanewburyport.org/','1883',108,69,177,2216212,48000,455,18688,164,260,false,Health and Wellness,Racial Justice and Civil Rights,Children's and Family Development,Housing,Women's and Girls' Leadership Development,6
MA05,YWCA Lowell,42.6441422,-71.3086365,97 Central Street Unit 302,Lowell,MA,01852,'https://www.facebook.com/YWCA-Lowell-284589538628591/','1891',12,2,14,545176,187000,3450,30,,,true,Immigrant and Refugee,Children's and Family Development,Health and Wellness,Economic Advancement,,3|6
MA06,YWCA Malden,42.4289547,-71.0713266,54 Washington Street,Malden,MA,02148,'http://www.ywcamalden.org/','1927',50,0,50,1326480,290000,1974,,,,true,Health and Wellness,Children's and Family Development,Economic Advancement,Racial Justice and Civil Rights,Women's and Girls' Empowerment,5
MA07,YWCA Northeastern Massachusetts,42.7089258,-71.1621617,38 Lawrence Street,Lawrence,MA,01840,'http://www.ywcalawrence.org/','1892',128,104,232,6397520,269170,483,378,97,2501,true,Domestic Violence and Safety,Sexual Assault and Trafficking,Children's and Family Development,Fitness and Athletics,Health and Wellness,3|6
MA08,YWCA Southeastern Massachusetts,41.6327946,-70.927211,20 South 6th Street,New Bedford,MA,02740,'http://www.ywcasema.org/','1911',24,80,104,885395,355000,1413,162,17,,true,Health and Wellness,Adult and Community ,Women's and Girls' Empowerment,Racial Justice and Civil Rights,Children's and Family Development,9
MA09,YWCA Western Massachusetts,42.0853825,-72.5351736,One Clough Street,Springfield,MA,01118,'http://www.ywworks.org/','1868',135,200,335,6176718,,131,35,400,2500,false,Domestic Violence and Safety,Sexual Assault and Trafficking,Housing,Women's and Girls' Empowerment,Children's and Family Development,1
MD01,YWCA Annapolis & Anne Arundel County,39.0270843,-76.5009678,"1517 Ritchie Hwy., Ste. 201",Arnold,MD,21012,'http://www.annapolisywca.org/','1918',36,102,138,3122071,,333,,,7450,false,Domestic Violence and Safety,Sexual Assault and Trafficking,,,,3|4
ME01,YWCA Central Maine,44.0932669,-70.1996711,130 East Avenue,Lewiston,ME,04240,'http://www.ywcamaine.org/','1878',33,98,131,969951,119897,1462,,,,false,Fitness and Athletics,Racial Justice and Civil Rights,Women's and Girls' Empowerment,Children's and Family Development,,2
ME02,YWCA Mount Desert,44.386637,-68.2069,36 Mount Desert Street,Bar Harbor,ME,04609,'http://www.ywcamdi.org/','1904',10,112,122,521091,,190,182,105,,false,Housing,Fitness and Athletics,,,,2
MI01,YWCA Great Lakes Bay Region,43.5978801,-83.888042,723 Washington Avenue,Bay City,MI,48732,'http://www.ywcaglbr.org/','1891',5,111,116,410991,,51,394,,,true,Economic Advancement,,,,,5
MI02,YWCA Greater Flint,43.0151657,-83.6856261,310 E. Third Street,Flint,MI,48502,'http://www.ywcaflint.org/','1908',28,123,151,1300000,699200,200,,,291,true,Domestic Violence and Safety,Sexual Assault and Trafficking,,,,5
MI03,YWCA Kalamazoo,42.2931098,-85.5796208,353 E Michigan Avenue,Kalamazoo,MI,49007,'http://www.ywcakalamazoo.org/','1885',76,25,101,2846503,715700,412,,,,true,Domestic Violence and Safety,Children's and Family Development,Sexual Assault and Trafficking,Economic Advancement,Women's and Girls' Leadership Development,6
MI04,YWCA Metropolitan Detroit,42.3335608,-83.03515,985 E. Jefferson Avenue,Detroit,MI,48207,'http://www.ywcadetroit.org/','1895',38,24,62,1622290,622116,290,,1800,1800,true,Domestic Violence and Safety,Housing,Children's and Family Development,,,14
MI05,YWCA West Central Michigan,42.9624118,-85.6670984,"25 Sheldon Boulevard, SE",Grand Rapids,MI,49503,'http://www.ywcawcmi.org/','1900',76,55,131,4500000,1960000,1944,,1044,3417,false,Domestic Violence and Safety,Sexual Assault and Trafficking,Women's and Girls' Empowerment,,,2|3
MN01,YWCA Duluth,46.7882672,-92.0979155,"32 East First Street, Suite 202",Duluth,MN,55802,'http://www.ywcaduluth.org/','1893',29,264,293,859148,,1489,270,24,,true,Children's and Family Development,Women's and Girls' Leadership Development,Women's and Girls' Empowerment,Economic Advancement,Racial Justice and Civil Rights,8
MN02,YWCA Mankato,44.1624225,-94.0041199,500 S. Broad Street,Mankato,MN,56001,'http://www.mankatoywca.org/','1927',13,583,596,768450,,351,,,,true,Racial Justice and Civil Rights,Women's and Girls' Leadership Development,Women's and Girls' Empowerment,Children's and Family Development,Immigrant and Refugee,1
MN03,YWCA Minneapolis,44.9726132,-93.2766784,1130 Nicollet Mall,Minneapolis,MN,55403,'http://www.ywcampls.org/','1891',505,781,1286,21206676,,7871,242,,,false,Fitness and Athletics,Racial Justice and Civil Rights,Children's and Family Development,Health and Wellness,Economic Advancement,5
MN04,YWCA St. Paul,44.9467756,-93.1158642,375 Selby Avenue,St Paul,MN,55102,'http://www.ywcaofstpaul.org/','1907',108,150,258,5288104,1254341,458,150,537,,false,Fitness and Athletics,Racial Justice and Civil Rights,Housing,Economic Advancement,Women's and Girls' Leadership Development,4
MO01,YWCA Metropolitan St. Louis,38.636896,-90.2401919,3820 West Pine Boulevard,St Louis,MO,63108,'http://www.ywcastlouis.org/','1869',308,2260,2568,28964157,1301000,5091,1544,39,59,true,Children's and Family Development,Sexual Assault and Trafficking,Domestic Violence and Safety,Women's and Girls' Leadership Development,Economic Advancement,1|2
MO02,YWCA St. Joseph,39.768552,-94.851078,304 North Eighth Street,St Joseph,MO,64501,'http://ywcasj.org/','1888',59,242,301,2306670,664322,1000,52,604,1270,true,Health and Wellness,Domestic Violence and Safety,Children's and Family Development,Racial Justice and Civil Rights,Sexual Assault and Trafficking,6
MT01,YWCA Billings,45.7782332,-108.5388879,909 Wyoming Avenue,Billings,MT,59101,'http://www.ywcabillings.org/','1907',40,126,166,1659000,428185,393,94,291,558,false,Domestic Violence and Safety,Sexual Assault and Trafficking,Children's and Family Development,Economic Advancement,,AL
MT02,YWCA Great Falls,47.5083819,-111.3045722,220 2nd Street North,Great Falls,MT,59401,'http://www.ywcagreatfalls.org/','1911',13,22,35,499207,237909,1784,62,,702,true,Adult and Community ,Racial Justice and Civil Rights,Children's and Family Development,Sexual Assault and Trafficking,Women's and Girls' Empowerment,AL
MT03,YWCA Helena,46.592201,-112.0398299,501 N Park Avene,Helena,MT,59601,'http://www.ywcahelena.org/','1912',7,216,223,2450721,,3249,910,,,true,Housing,,,,,AL
MT04,YWCA Missoula,46.8773101,-114.0095984,1130 W. Broadway,Missoula,MT,59802,'http://www.ywcaofmissoula.org/','1911',49,286,335,1427533,432636,838,,311,849,true,Housing,Women's and Girls' Empowerment,Women's and Girls' Leadership Development,Racial Justice and Civil Rights,,AL
NC01,YWCA Asheville & Western North Carolina,35.5873686,-82.5602078,185 South French Broad Avenue,Asheville,NC,28801,'http://www.ywcaofasheville.org/','1907',97,113,210,2908681,1049867,679,55,,,true,Children's and Family Development,Racial Justice and Civil Rights,Fitness and Athletics,Health and Wellness,Economic Advancement,10
NC02,YWCA Central Carolinas,35.1836018,-80.8543782,3420 Park Road,Charlotte,NC,28209,'http://www.ywcacentralcarolinas.org/','1902',89,728,817,3424228,290000,2835,2320,195,,false,Economic Advancement,Children's and Family Development,Fitness and Athletics,Housing,,12
NC03,YWCA Greensboro,36.0877023,-79.7616817,1807 E. Wendover Avenue,Greensboro,NC,27405,'https://ywcagsonc.org/','1903',28,259,287,1652030,167000,,,,8500,false,Children's and Family Development,Racial Justice and Civil Rights,Women's and Girls' Empowerment,Housing,,6
NC04,YWCA High Point,35.961425,-80.0101938,112 Gatewood Avenue,High Point,NC,27262,'http://www.ywcahp.com/','1920',44,95,139,1246448,9000,135,70,20,,false,Adult and Community ,Fitness and Athletics,Racial Justice and Civil Rights,Immigrant and Refugee,Women's and Girls' Leadership Development,13
NC05,YWCA Lower Cape Fear,34.1953964,-77.8884827,2815 S. College Road,Wilmington,NC,28412,'http://www.ywca-lowercapefear.org/','1914',9,313,322,1337536,75000,10304,5000,,,false,Racial Justice and Civil Rights,Children's and Family Development,Fitness and Athletics,Adult and Community ,Economic Advancement,7
NC06,YWCA Winston-Salem / Forsyth County,36.090093,-80.246795,313 Indera Mills Court,Winston-Salem,NC,27101,'http://www.ywcaws.org/','1908',111,394,505,2860636,,2130,699,,,false,Fitness and Athletics,Health and Wellness,Economic Advancement,Children's and Family Development,Racial Justice and Civil Rights,5|12
ND01,YWCA Cass Clay,46.8901472,-96.8274461,3100 12th Avenue N,Fargo,ND,58102,'http://www.ywcacassclay.org/','1906',71,1980,2051,3133768,792000,1403,502,69,617,true,Adult and Community ,Economic Advancement,Domestic Violence and Safety,Children's and Family Development,Health and Wellness,AL
ND02,YWCA Minot,48.2334312,-101.2899618,"205 3rd Avenue, SE",Minot,ND,58701,'http://www.ywcaminot.org/','1915',2,87,89,209483,,102,300,550,,true,Housing,Economic Advancement,,,,AL
NE01,YWCA Adams County,40.5890792,-98.3872321,604 N. St. Joseph,Hastings,NE,68901,'http://www.ywcaadamscounty.org/','1916',7,155,162,488045,,2194,389,,,false,Children's and Family Development,Health and Wellness,Women's and Girls' Empowerment,Adult and Community ,Racial Justice and Civil Rights,3
NE02,YWCA Grand Island,40.9086449,-98.3376483,211 East Fonner Park Road,Grand Island,NE,68801,'http://www.ywca-gi.org/','1912',25,29,54,1055648,,9354,,,,false,Children's and Family Development,,,,,3
NE03,YWCA Lincoln,40.7955034,-96.6969945,"1701 S 17th St, Suite 1A",Lincoln,NE,68502,'http://www.ywcalincoln.org/','1886',13,48,61,265254,108000,,,,,false,Children's and Family Development,Racial Justice and Civil Rights,Immigrant and Refugee,Women's and Girls' Leadership Development,,1
NH01,YWCA New Hampshire,42.9929411,-71.4610966,72 Concord Street,Manchester,NH,03109,'http://www.ywcanh.org/','1920',24,268,292,934899,427538,173,150,70,2538,true,Domestic Violence and Safety,Women's and Girls' Empowerment,Sexual Assault and Trafficking,Children's and Family Development,Economic Advancement,1
NJ01,YWCA Bergen County,40.8850845,-74.043657,"214 State Street, Suite 207",Hackensack,NJ,07601,'http://www.ywcabergencounty.org/','1920',252,723,975,5000000,554000,1752,375,,3494,true,Sexual Assault and Trafficking,Adult and Community ,Fitness and Athletics,Racial Justice and Civil Rights,Women's and Girls' Empowerment,5
NJ02,YWCA Princeton,40.3515223,-74.6654389,59 Paul Robeson Place,Princeton,NJ,08540,'http://www.ywcaprinceton.org/','1922',154,575,729,5000000,258000,3556,1477,,,false,Fitness and Athletics,Economic Advancement,Immigrant and Refugee,Health and Wellness,Children's and Family Development,4|12
NJ03,YWCA Union County,40.6647849,-74.2123133,1131 E. Jersey Street,Elizabeth,NJ,07201,'http://www.ywcaunioncounty.org/','1920',41,55,96,2369957,1143290,500,106,29,5002,true,Domestic Violence and Safety,,,,,8|7|10|12
NV01,YWCA Nevada,36.1468299,-115.1439763,"P.O. Box 271182, 2100 Santiago Street",Las Vegas,NV,89106,'http://www.ywcanevada.org/','2013',0,55,55,,,15,,,,false,Racial Justice and Civil Rights,,,,,1|4
NY01,YWCA Binghamton & Broome County,42.0970426,-75.9098446,80 Hawley Street,Binghamton,NY,13901,'http://www.ywcabinghamton.org/','1892',41,25,66,2032725,100000,362,128,290,,false,Health and Wellness,Housing,Adult and Community ,Economic Advancement,Women's and Girls' Empowerment,22
NY02,YWCA Brooklyn,40.685827,-73.980555,"30 Third Avenue,",Brooklyn,NY,11217,'http://www.ywcabklyn.org/','1888',30,112,142,4300000,,3241,586,308,145,false,Women's and Girls' Leadership Development,Adult and Community ,Health and Wellness,Fitness and Athletics,Women's and Girls' Empowerment,7|8|9|11
NY03,YWCA City of New York,40.7062272,-74.0124192,"50 Broadway @ Exchange Place, 13th Floor",New York,NY,10004,'http://www.ywcanyc.org/','1858',169,512,681,8030228,5000000,5815,2110,,,false,Children's and Family Development,Economic Advancement,Women's and Girls' Empowerment,Racial Justice and Civil Rights,,7|10
NY04,YWCA Cortland,42.5983447,-76.1812817,14 Clayton Avenue,Cortland,NY,13045,'http://www.cortlandywca.org/','1913',120,530,650,2550224,131019,178,,70,779,false,Fitness and Athletics,Children's and Family Development,Domestic Violence and Safety,Racial Justice and Civil Rights,Housing,22|24
NY05,YWCA Elmira & Twin Tiers,42.0903659,-76.802279,211 Lake Street,Elmira,NY,14901,'https://www.ywcaelmira.org/','1887',145,40,185,1421450,,20800,,,,true,,,,,,23
NY06,YWCA Genesee County,43.005693,-78.1728119,301 North Street,Batavia,NY,14020,'http://www.ywcagenesee.org/','1910',12,35,47,1011227,144200,587,,26,567,false,Domestic Violence and Safety,Children's and Family Development,,,,27
NY07,YWCA Greater Capitol Region,42.7301974,-73.6934369,21 First Street,Troy,NY,12180,'http://www.ywca-gcr.org/','1883',24,88,112,1320854,160000,400,34,324,,true,Housing,Economic Advancement,,,,19|20
NY08,YWCA Jamestown,42.0973526,-79.2419731,401 North Main Street,Jamestown,NY,14701,'http://www.ywcaofjamestown.com/','1884',76,32,108,1547291,,1972,47,1029,1796,true,Health and Wellness,Children's and Family Development,Housing,,,23
NY09,YWCA Mohawk Valley,43.0996579,-75.2375458,1000 Cornelia Street,Utica,NY,13502,'http://www.ywcamv.org/','1885',41,55,96,2257612,1385226,791,50,174,300,true,Health and Wellness,Sexual Assault and Trafficking,Economic Advancement,,,22
NY10,YWCA Niagara Frontier,43.168632,-78.694311,32 Cottage Street,Lockport,NY,14094,'http://www.ywcaniagarafrontier.org/','1915',125,58,183,2436156,,3273,1929,45,200,true,Economic Advancement,Sexual Assault and Trafficking,Domestic Violence and Safety,Women's and Girls' Leadership Development,Children's and Family Development,27
NY11,YWCA NorthEastern New York,42.8166165,-73.9496617,44 Washington Avenue,Schenectady,NY,12305,'http://www.ywca-northeasternny.org/','1888',79,23,102,2922148,749700,299,200,,,true,Domestic Violence and Safety,Economic Advancement,Health and Wellness,Racial Justice and Civil Rights,Children's and Family Development,20
NY12,YWCA Orange County,41.5021688,-74.0309965,21 West Street,Newburgh,NY,12550,'http://www.ywca-orangecty.org/','1888',12,120,132,345381,,,,,,false,,,,,,18
NY13,YWCA Queens,40.7580603,-73.8187413,4207 Parsons Boulevard,Flushing,NY,11355,'http://www.ywcaqueens.org/','1978',50,74,124,3850472,835000,150,450,,,false,Racial Justice and Civil Rights,Economic Advancement,Immigrant and Refugee,Adult and Community ,Children's and Family Development,6
NY14,YWCA Rochester & Monroe,43.1607952,-77.6082772,175 North Clinton Avenue,Rochester,NY,14604,'http://www.ywcarochester.org/','1883',37,169,206,3139632,689000,649,,811,20,true,Housing,Racial Justice and Civil Rights,Children's and Family Development,Health and Wellness,Domestic Violence and Safety,25|27
NY15,YWCA Syracuse & Onondaga County,43.0607329,-76.1387868,401 Douglas Street,Syracuse,NY,13203,'http://www.ywca-syracuse.org/','1885',60,12,72,1148735,,598,301,59,22,false,Children's and Family Development,Economic Advancement,Housing,Domestic Violence and Safety,,24
NY16,YWCA Ulster County,41.932139,-74.0150948,209 Clinton Avenue,Kingston,NY,12401,'http://www.ywcaulstercounty.org/','1923',40,85,125,1144103,,1749,,,,true,Children's and Family Development,Women's and Girls' Empowerment,Women's and Girls' Leadership Development,Economic Advancement,Health and Wellness,19
NY17,YWCA Western New York,42.9400945,-78.8900835,"1005 Grant Street, Suite 3",Buffalo,NY,14207,'http://www.ywca-wny.org/','1870',34,48,82,912718,792900,2900,41,83,15,false,Children's and Family Development,Housing,Economic Advancement,Domestic Violence and Safety,,26
NY18,YWCA Westfield,42.3201039,-79.577107,58 South Portage Street,Westfield,NY,14787,'http://www.ywcawestfield.org/','1894',17,9,26,363947,,25,,,,false,Women's and Girls' Empowerment,Women's and Girls' Leadership Development,Adult and Community ,,,23
NY19,YWCA White Plains and Central Westchester,41.0196453,-73.7402319,515 North Street,White Plains,NY,10605,'http://www.ywcawpcw.org/','1925',248,47,295,7608652,,6633,,175,5042,false,Domestic Violence and Safety,Fitness and Athletics,Health and Wellness,Children's and Family Development,Adult and Community ,17
NY20,YWCA Yonkers,40.9307724,-73.8988105,87 South Broadway,Yonkers,NY,10701,'http://www.ywcayonkers.org/','1892',39,6,45,1578694,,140,25,,,true,Adult and Community ,Children's and Family Development,Women's and Girls' Leadership Development,Economic Advancement,,16
OH01,YWCA Alliance,40.9206917,-81.1018116,239 E. Market Street,Alliance,OH,44601,'http://www.allianceywca.org/','1926',5,91,96,452223,36000,1131,190,5,,true,Children's and Family Development,Economic Advancement,Racial Justice and Civil Rights,Housing,,6|7
OH02,YWCA Canton (OH),40.801975,-81.3718998,231 6th Street NE,Canton,OH,44702,'http://www.ywcacanton.org/','1909',48,351,399,5367000,,646,,828,,true,Housing,Children's and Family Development,,,,7
OH03,YWCA Columbus,39.9611973,-82.9963759,65 S. Fourth Street,Columbus,OH,43215,'http://www.ywcacolumbus.org/','1887',168,3716,3884,9196229,257000,2681,,2269,,false,,,,,,3
OH04,YWCA Dayton,39.7594538,-84.1950994,141 West Third Street,Dayton,OH,45402,'http://www.ywcadayton.org/','1870',65,367,432,3427485,823230,1855,425,241,1755,true,Domestic Violence and Safety,Women's and Girls' Empowerment,Economic Advancement,Women's and Girls' Leadership Development,Health and Wellness,10
OH05,YWCA Elyria,41.3647095,-82.1099724,318 West Avenue,Elyria,OH,44035,'http://www.ywcaelyria.org/','1913',15,60,75,770000,298000,,,,,true,,,,,,4|7
OH06,YWCA Greater Cincinnati,39.1054131,-84.5120848,898 Walnut Street,Cincinnati,OH,45202,'http://www.ywcacincinnati.org/','1868',120,235,355,7429732,789798,8390,364,995,19248,false,Health and Wellness,Women's and Girls' Leadership Development,Racial Justice and Civil Rights,Domestic Violence and Safety,Children's and Family Development,1|2
OH07,YWCA Greater Cleveland,41.5026698,-81.6571816,4019 Prospect Avenue,Cleveland,OH,44103,'http://www.ywcaofcleveland.org/','1868',73,49,122,6000000,285000,70,148,30,,true,Women's and Girls' Empowerment,Racial Justice and Civil Rights,Women's and Girls' Leadership Development,Children's and Family Development,Housing,11
OH08,YWCA Hamilton,39.4017755,-84.5595164,244 Dayton Street,Hamilton,OH,45011,'http://www.ywcahamilton.com/','1900',23,99,122,1260573,216000,183,,,3050,false,Domestic Violence and Safety,Women's and Girls' Empowerment,Economic Advancement,Health and Wellness,Housing,1|8|10
OH09,YWCA Lorain,41.461252,-82.1833443,200 W 9th St,Lorain,OH,44052,'http://ywcalorain.org/about.html','1950',,,0,,,,120,,174,true,,,,,,4|9
OH10,YWCA Mahoning Valley,40.939678,-80.586651,25 West Rayen Avenue,Youngstown,OH,45356,'https://www.facebook.com/YWCAMahoningValley/','1904',44,155,199,1657162,770355,2525,100,,,false,Sexual Assault and Trafficking,Adult and Community ,Racial Justice and Civil Rights,Health and Wellness,Children's and Family Development,6|13|14
OH11,YWCA Northwest Ohio,41.6533672,-83.5417683,1018 Jefferson Avenue,Toledo,OH,43952,'http://www.ywcanwo.org/','1891',77,263,340,4285838,3082193,,6834,,14,false,Economic Advancement,Adult and Community ,Housing,,,9
OH12,YWCA Piqua,40.1502982,-84.241383,418 N Wayne Street,Piqua,OH,45891,'http://www.ywca.org/site/apps/nlnet/content2.aspx?c=cuIRJ7NTKrLaG&b=7534269&ct=12761519&notoc=1','1919',8,193,201,288638,,190,,,,false,Fitness and Athletics,Racial Justice and Civil Rights,Children's and Family Development,Housing,Domestic Violence and Safety,4
OH13,YWCA Steubenville,40.3640042,-80.6127039,320 N. Fourth Street,Steubenville,OH,44481,'https://www.facebook.com/YWCA-Steubenville-Ohio-136078316502519/','1913',4,25,29,66538,,,35,17,,true,Women's and Girls' Empowerment,Children's and Family Development,Racial Justice and Civil Rights,Economic Advancement,Women's and Girls' Leadership Development,6
OH14,YWCA Van Wert County,40.8693692,-84.5777445,408 E. Main Street,Van Wert,OH,44503,'https://www.facebook.com/YWCA-of-Van-Wert-County-207741459248478/','1916',50,117,167,623154,363872,966,,55,16,true,Children's and Family Development,Housing,Women's and Girls' Empowerment,Women's and Girls' Leadership Development,Racial Justice and Civil Rights,5
OK01,YWCA Enid,36.3913548,-97.8874366,525 South Quincy,Enid,OK,73701,'http://www.ywcaenid.com/','1920',17,132,149,859111,154531,,,,,true,,,,,,3
OK02,YWCA Oklahoma City,35.5126035,-97.5528326,2460 NW I-44 Service Road,Oklahoma City,OK,73112,'http://www.ywcaokc.org/','1907',123,424,547,3870525,815761,2616,190,6,1649,false,Domestic Violence and Safety,Women's and Girls' Empowerment,Sexual Assault and Trafficking,Economic Advancement,Racial Justice and Civil Rights,5
OK03,YWCA Tulsa,36.1404485,-95.9920918,1503 S Denver Ave,Tulsa,OK,74119,'http://www.ywcatulsa.org/','1914',84,418,502,2818633,,2057,,,,false,Immigrant and Refugee,Fitness and Athletics,Health and Wellness,,,1
OR01,YWCA Greater Portland,45.5163747,-122.6149932,"P.O. Box 16130, 4610 SE Belmont St",Portland,OR,97292,'http://www.ywcapdx.org/','1901',27,512,539,1435508,389429,842,95,128,,false,Housing,Racial Justice and Civil Rights,Adult and Community ,Domestic Violence and Safety,Economic Advancement,3
PA01,YWCA Allentown,40.600321,-75.4801855,1101 West Hamilton Street,Allentown,PA,18101,'https://www.facebook.com/YWCAAllentown/','1885',168,48,216,1085697,58000,5,534,,,true,Economic Advancement,,,,,15
PA02,YWCA Bethlehem,40.66976,-75.38254,"3895 Adler Place, Bldg A, Ste 180",Bethlehem,PA,18017,'http://www.ywcabethlehem.com/','1927',19,263,282,614026,,315,60,,,false,Adult and Community ,Fitness and Athletics,Economic Advancement,Health and Wellness,,15|17
PA03,YWCA Bradford,41.9548926,-78.6522088,24 W. Corydon Street,Bradford,PA,16701,'http://www.ywcabradford.org/','1915',52,33,85,2351448,,,9,76,2374,true,Children's and Family Development,Domestic Violence and Safety,Sexual Assault and Trafficking,Housing,Adult and Community ,5
PA04,YWCA Butler,40.860162,-79.8963137,120 W. Cunningham Street,Butler,PA,16001,'http://www.ywcaofbutler.com/','1912',47,11,58,944289,,37,,37,,true,Racial Justice and Civil Rights,Housing,Adult and Community ,,,3
PA05,YWCA Carlisle,40.2153418,-77.1952643,301 G Street,Carlisle,PA,17013,'http://www.ywcacarlisle.org/','1919',20,262,282,1000000,189685,12514,3000,,6050,true,Health and Wellness,Sexual Assault and Trafficking,Women's and Girls' Empowerment,Economic Advancement,Women's and Girls' Leadership Development,11
PA06,YWCA Gettysburg & Adams County,39.8281486,-77.2475338,909 Fairfield Road,Gettysburg,PA,17325,'http://www.ywcagettysburg.org/','1926',155,570,725,3403283,,1439,119,36,,false,Fitness and Athletics,Adult and Community ,Children's and Family Development,Racial Justice and Civil Rights,Health and Wellness,4
PA07,YWCA Greater Harrisburg,40.2641828,-76.8723002,1101 Market Street,Harrisburg,PA,17103,'http://www.ywcahbg.org/','1894',86,47,133,6294412,,16275,175,300,30989,true,Health and Wellness,Domestic Violence and Safety,Sexual Assault and Trafficking,Racial Justice and Civil Rights,Housing,4|11
PA08,YWCA Greater Johnston,40.3208306,-78.9169915,526 Somerset Street,Johnstown,PA,15901,'http://www.1ywcajohnstown.org/','1913',35,59,94,350265,,208,,,,true,Fitness and Athletics,Children's and Family Development,,,,12
PA09,YWCA Greater Pittsburgh,40.4392206,-80.0017052,305 Wood Street,Pittsburgh,PA,15222,'http://www.ywcapgh.org/','1867',149,50,199,72546956,61780443,813,350,750,2506,false,Women's and Girls' Empowerment,Economic Advancement,Health and Wellness,Racial Justice and Civil Rights,Domestic Violence and Safety,12|14
PA10,YWCA Hanover,39.8011159,-76.9857222,23 West Chestnut Street,Hanover,PA,17331,'http://www.ywcahanover.org/','1920',36,148,184,1542916,401955,,,,,false,Domestic Violence and Safety,Children's and Family Development,Racial Justice and Civil Rights,,,4
PA11,YWCA Lancaster,40.0402999,-76.3020252,110 N. Lime Street,Lancaster,PA,17602,'http://www.ywcalancaster.org/','1889',125,177,302,3987314,1125000,110,,16,562,false,Sexual Assault and Trafficking,Racial Justice and Civil Rights,Children's and Family Development,Women's and Girls' Empowerment,Housing,16
PA12,YWCA Northcentral PA,41.2391369,-77.0181213,815 West Fourth Street,Williamsport,PA,17701,'http://www.ywcawilliamsport.org/','1893',32,139,171,1599578,695045,4522,,974,10215,true,Domestic Violence and Safety,Sexual Assault and Trafficking,Children's and Family Development,Women's and Girls' Empowerment,Racial Justice and Civil Rights,10
PA13,YWCA Oil City,41.427765,-79.710337,109 Central Avenue,Oil City,PA,16301,'http://www.ocywca.org/','1924',15,8,23,300241,,199,,8,,true,Fitness and Athletics,Health and Wellness,Housing,,,5
PA14,YWCA Titusville,41.6282674,-79.6733648,201 N. Franklin Street,Titusville,PA,16354,'http://www.ywcatitusville.org/','1917',6,42,48,350158,,232,,75,,false,Fitness and Athletics,Children's and Family Development,Housing,Health and Wellness,,3|5
PA15,YWCA Tri-County Area,40.2465402,-75.6466737,315 King Street,Pottstown,PA,19464,'http://www.ywcatricountyarea.org/','1908',37,19,56,2000000,1175000,780,,,,true,Health and Wellness,Children's and Family Development,Immigrant and Refugee,,,6
PA16,YWCA Westmoreland County,40.308775,-79.546813,424 N. Main Street,Greensburg,PA,15601,'http://www.ywcawestmoreland.org/','1959',25,118,143,675661,,349,300,,,false,Adult and Community ,Women's and Girls' Empowerment,Racial Justice and Civil Rights,Economic Advancement,Women's and Girls' Leadership Development,12|18
PA17,YWCA York,39.9640629,-76.721007,320 East Market Street,York,PA,17403,'http://www.ywcayork.org/','1891',169,301,470,6200000,888878,3101,,578,8543,false,Domestic Violence and Safety,Sexual Assault and Trafficking,Racial Justice and Civil Rights,Children's and Family Development,Fitness and Athletics,4
PA18,YWCA Bucks County,42.0053351,-71.5212662,514 Blackstone Street,Woonsocket,PA ,02895,'http://www.ywcari.org/','1867',69,16,85,1066811,,2731,100,,,false,Racial Justice and Civil Rights,Children's and Family Development,Fitness and Athletics,Housing,Sexual Assault and Trafficking,
RI01,YWCA Rhode Island,32.7995266,-80.0181172,"1064 Gardner Road, Suite 113",Charleston,RI,29407,'http://www.ywca-charlestonsc.org/','1907',80,68,148,3500758,25000,826,678,122,,false,Racial Justice and Civil Rights,Women's and Girls' Leadership Development,Economic Advancement,,,1
SC01,YWCA Greater Charleston,33.9279485,-80.3466874,246 Church Street,Sumter,SC,29150,'http://www.ywca.org/site/pp.asp?c=hhLNKYPELsF&b=5044707','1967',7,88,95,251014,,124,9,,,false,Domestic Violence and Safety,Children's and Family Development,Economic Advancement,Immigrant and Refugee,,1
SC02,YWCA Upper Lowlands,44.3608519,-98.214176,17 5th St SW,Huron,SC,57350,'https://www.facebook.com/YWCA-of-Huron-134500706624329/','1919',24,44,68,475769,,22,286,,5103,true,,,,,,5|6
TN01,YWCA Greater Memphis,35.963302,-83.9195119,420 West Clinch Avenue,Knoxville,TN,37902,'http://www.ywcaknox.com/','1899',43,15,58,2505012,250000,,,,,true,Children's and Family Development,Fitness and Athletics,Domestic Violence and Safety,Economic Advancement,Housing,8|9
TN02,YWCA Knoxville and the Tennessee Valley,35.1106221,-89.9455333,766 South Highland,Memphis,TN,38111,'http://www.memphisywca.org/','1919',41,83,124,1225405,,529,83,98,,true,Domestic Violence and Safety,Economic Advancement,Health and Wellness,Housing,Immigrant and Refugee,2
TN03,YWCA Nashville & Middle Tennessee,36.1136922,-86.8022661,1608 Woodmont Boulevard,Nashville,TN,37215,'https://ywcanashville.com/','1898',78,1846,1924,4316696,910000,11027,3684,,10428,false,Domestic Violence and Safety,Children's and Family Development,Adult and Community ,Women's and Girls' Empowerment,Economic Advancement,5|7
TN04,YWCA Northeast Tennessee & Southeast Virginia,36.5940717,-82.1779941,106 State Street,Bristol,TN,37620,'http://www.ywcabristol.org/','1943',80,186,266,2004444,,5201,101,98,3300,false,Women's and Girls' Leadership Development,Children's and Family Development,Health and Wellness,Fitness and Athletics,Racial Justice and Civil Rights,1
TX01,YWCA Beaumont,30.0833769,-94.148156,"4347 Phelan Blvd., Suite 107",Beaumont,TX,77707,'http://www.ywcabeaumont.org/','1911',,15,15,33022,,140,40,,,false,Economic Advancement,Women's and Girls' Empowerment,Children's and Family Development,,,14
TX02,YWCA Corpus Christi,27.7132504,-97.3893161,4601 Corona Drive,Corpus Christi,TX,78411,'http://www.ywcacc.org/','1945',34,59,93,877174,,2927,,,,false,Women's and Girls' Leadership Development,Fitness and Athletics,Adult and Community ,,,27
TX03,YWCA El Paso del Norte Region,31.7610556,-106.4883121,"201 E. Main St., Suite 400",El Paso,TX,79901,'http://www.ywcaelpaso.org/','1909',362,1190,1552,26925822,,9849,2088,372,,false,Fitness and Athletics,Children's and Family Development,Economic Advancement,Racial Justice and Civil Rights,Housing,16
TX04,YWCA Greater Austin,30.236631,-97.7382992,"2015 S IH 35, Suite 110",Austin,TX,78741,'http://www.ywcaaustin.org/','1885',19,49,68,1195942,935605,736,,,1500,false,Health and Wellness,Children's and Family Development,Racial Justice and Civil Rights,Women's and Girls' Empowerment,,21
TX05,YWCA Houston,29.6890087,-95.3397677,6309 Martin Luther King,Houston,TX,77021,'http://www.ywcahouston.org/','1907',26,534,560,2053413,,1644,,25,,true,Adult and Community ,Economic Advancement,Racial Justice and Civil Rights,Children's and Family Development,Housing,18
TX06,YWCA Lubbock,33.5619713,-101.8818008,3101 35th Street,Lubbock,TX,79413,'http://www.ywcalubbock.org/','1955',269,493,762,7543027,2050136,1786,513,677,26,false,Economic Advancement,Health and Wellness,Children's and Family Development,Fitness and Athletics,Women's and Girls' Leadership Development,19
TX07,YWCA San Antonio,29.5105341,-98.3548065,6756 Montgomery Drive,San Antonio,TX,78239,'http://www.ywcasanantonio.org/','1910',71,11,82,2106042,137200,4173,3298,,,false,Immigrant and Refugee,Children's and Family Development,Economic Advancement,Health and Wellness,Fitness and Athletics,28
UT01,YWCA Utah,40.7624581,-111.8817659,322 East 300 South,Salt Lake City,UT,84111,'http://www.ywcautah.org/','1906',110,2338,2448,6879311,1199264,2464,,1061,4034,false,Domestic Violence and Safety,Women's and Girls' Leadership Development,Children's and Family Development,,,2
VA01,YWCA Central Virginia,37.4162869,-79.144523,626 Church Street,Lynchburg,VA,24504,'http://www.ywca.org/centralvirginia','1912',56,200,256,1286438,603823,1693,,20,14398,true,Domestic Violence and Safety,Sexual Assault and Trafficking,Racial Justice and Civil Rights,Women's and Girls' Leadership Development,Housing,6
VA02,YWCA South Hampton Roads,36.8470705,-76.287738,"500 East Plume Street, Suite 700",Norfolk,VA,23510,'http://www.ywca-shr.org/','1911',107,86,193,2369503,1015963,1737,174,,1699,false,Sexual Assault and Trafficking,Domestic Violence and Safety,Children's and Family Development,Economic Advancement,,3
VT01,YWCA Vermont,44.49334,-73.1195803,"76 Pearl Street, Suite 205",Essex Junction,VT,05452,'https://ywcavt.org/','1919',5,209,214,509344,,828,,,,false,Fitness and Athletics,Women's and Girls' Leadership Development,,,,AL
WA01,YWCA Bellingham,48.7452885,-122.4789339,1026 North Forest Street,Bellingham,WA,98225,'http://www.ywcabellingham.org/','1907',9,27,36,276363,,44,,700,,true,Housing,,,,,1|2
WA02,YWCA Clark County,45.647663,-122.6675376,3609 Main Street,Vancouver,WA,98663,'http://www.ywcaclarkcounty.org/','1916',77,500,577,3325767,708657,1850,,,1036,false,Sexual Assault and Trafficking,Domestic Violence and Safety,Children's and Family Development,,,3
WA03,YWCA Kitsap County,47.5699845,-122.6273226,"P.O. Box 559, 905 Pacific Avenue",Bremerton,WA,98337,'http://www.ywcakitsap.org/','1947',18,54,72,787422,55000,2250,262,139,976,true,Domestic Violence and Safety,,,,,6
WA04,YWCA North Central Washington,47.4254041,-120.3145948,212 First Street,Wenatchee,WA,98801,'http://ywcancw.org/','1957',10,53,63,424731,,2808,46,199,16,true,Racial Justice and Civil Rights,Housing,Economic Advancement,Women's and Girls' Leadership Development,Adult and Community ,8
WA05,YWCA Olympia,47.0393638,-122.8986038,220 Union Avenue SE,Olympia,WA,98501,'http://www.ywcaofolympia.org/','1945',11,198,209,609061,,1303,447,,,true,Economic Advancement,Women's and Girls' Empowerment,Racial Justice and Civil Rights,Women's and Girls' Leadership Development,Health and Wellness,10
WA06,YWCA Pierce County,47.260675,-122.44266,405 Broadway,Tacoma,WA,98402,'http://www.ywcapiercecounty.org/','1906',45,336,381,2689524,,1880,,,6000,false,Domestic Violence and Safety,Women's and Girls' Leadership Development,Children's and Family Development,Racial Justice and Civil Rights,Women's and Girls' Empowerment,6|9
WA07,YWCA Seattle|King|Snohomish,47.6079196,-122.3326552,1118 Fifth Avenue,Seattle,WA,98101,'http://www.ywcaworks.org/','1894',401,761,1162,31135043,5363064,4534,1135,9770,1870,false,Housing,Health and Wellness,Domestic Violence and Safety,Economic Advancement,Racial Justice and Civil Rights,7
WA08,YWCA Spokane,47.6662657,-117.4259026,930 N Monroe Street,Spokane,WA,99201,'http://www.ywcaspokane.org/','1903',75,275,350,3190738,1562217,703,1937,600,10329,true,Children's and Family Development,Economic Advancement,Domestic Violence and Safety,Housing,Health and Wellness,5
WA09,YWCA Walla Walla,46.0649663,-118.3357858,213 South First Street,Walla Walla,WA,99362,'http://www.ywcaww.org/','1917',63,182,245,1444482,276987,5865,256,,5395,false,Domestic Violence and Safety,Fitness and Athletics,Sexual Assault and Trafficking,Racial Justice and Civil Rights,Children's and Family Development,2|5
WA10,YWCA Washington State University,46.7303384,-117.162492,"Wilson-Short Hall, 8C",Pullman,WA,99163,'https://women.wsu.edu/coalition-for-women-students/ywca-of-wsu/','1895',7,7,14,,,,,,100,false,Racial Justice and Civil Rights,Women's and Girls' Empowerment,Domestic Violence and Safety,,,5
WA11,YWCA Yakima,46.598344,-120.5208125,818 West Yakima Avenue,Yakima,WA,98902,'http://www.ywcayakima.org/','1909',27,67,94,1332055,207764,4806,,368,6440,false,Children's and Family Development,,,,,4
WI01,YWCA Greater Green Bay,44.5109472,-88.0137045,230 South Madison Street,Green Bay,WI,54301,'http://www.ywcagreenbay.org/','1919',54,53,107,1511991,,,2400,,,false,,,,,,8
WI02,YWCA La Crosse,43.8656003,-91.2269096,3219 Commerce Street,La Crosse,WI,54603,'http://www.ywcalax.org/','1906',65,148,213,1352353,,11734,6289,,,false,Racial Justice and Civil Rights,Children's and Family Development,Housing,Economic Advancement,Women's and Girls' Leadership Development,3
WI03,YWCA Madison,43.0764718,-89.3838256,101 E. Mifflin Street,Madison,WI,53703,'http://www.ywcamadison.org/','1909',70,212,282,5246926,651000,683,168,293,45,false,Children's and Family Development,Racial Justice and Civil Rights,Housing,Economic Advancement,Women's and Girls' Leadership Development,2
WI04,YWCA Rock County,42.6540025,-89.0333337,1735 S Washington,Janesville,WI,53546,'http://www.ywcarockcounty.org/','1922',73,61,134,1772444,516630,1951,,246,999,false,Racial Justice and Civil Rights,Domestic Violence and Safety,Children's and Family Development,Women's and Girls' Empowerment,Immigrant and Refugee,1|2
WI05,YWCA Southeast Wisconsin,43.0556264,-87.914596,1915 N. Martin Luther King Dr.,Milwaukee,WI,53212,'http://www.ywcasew.org/','1892',53,100,153,7124575,1350000,142,8357,80,,true,Economic Advancement,Racial Justice and Civil Rights,Women's and Girls' Leadership Development,Housing,,1|4
WI06,YWCA Wausau,44.9619059,-89.6249564,613 Fifth Street,Wausau,WI,54403,'http://www.ywcawausau.org/','1920',2,59,61,695097,,,75,,,true,Women's and Girls' Empowerment,Economic Advancement,,,,7
WV01,YWCA Charleston (WV),38.3408696,-81.6263188,1426 Kanawha Boulevard East,Charleston,WV,25301,'http://www.ywcacharleston.org/','1912',91,1384,1475,3639281,685947,1390,711,523,1513,false,Domestic Violence and Safety,Children's and Family Development,Fitness and Athletics,Housing,Economic Advancement,2
WV02,YWCA Marion County,39.4451116,-80.1541129,2019 Pleasant Valley Road,Fairmont,WV,26554,'http://www.ywca.org/site/pp.asp?c=igLQIYOEKpF&b=900319','1922',4,12,16,85673,,1475,,,,false,Women's and Girls' Leadership Development,Children's and Family Development,Health and Wellness,,,1
WV03,YWCA Wheeling,40.0687079,-80.7211906,1100 Chapline Street,Wheeling,WV,26003,'http://www.ywcawheeling.org/','1906',53,691,744,1600359,,4256,6232,60,5272,true,Women's and Girls' Empowerment,Economic Advancement,Domestic Violence and Safety,Racial Justice and Civil Rights,Sexual Assault and Trafficking,1
WY04,YWCA Sweetwater County,41.5895558,-109.2501101,"P.O. Box 1667, 1035 Jackson St",Rock Springs,WY,82902,'http://www.ywcasweetwater.org/','1976',32,254,286,1407983,222410,248,852,79,183,false,Economic Advancement,Children's and Family Development,Domestic Violence and Safety,Sexual Assault and Trafficking,Housing,AL